ORBCOMM FM33            
1 25983U 99065D   24226.58214716  .00005066  00000+0  17005-2 0  9997
2 25983  45.0299  19.5299 0008115 303.8556  56.1520 14.38113364291755
ORBCOMM FM36            
1 25984U 99065E   24226.41253911  .00004903  00000+0  17180-2 0  9993
2 25984  45.0392 107.4434 0002917 182.3171 177.7664 14.36044777290145
ORBCOMM FM35            
1 25985U 99065F   24226.41652792  .00003562  00000+0  12753-2 0  9995
2 25985  45.0391 110.4217 0003284 306.9474  53.1073 14.35494441290536
ORBCOMM FM34            
1 25986U 99065G   24226.38863992  .00003783  00000+0  13518-2 0  9993
2 25986  45.0384 111.1025 0003075 246.0143 114.0383 14.35480428290642
ORBCOMM FM38            
1 33060U 08031A   24226.49185959  .00008892  00000+0  12388-2 0  9990
2 33060  48.4419 338.5984 0005120 170.8102 189.2906 14.78246711869178
ORBCOMM FM29            
1 33062U 08031C   24226.56647192  .00009160  00000+0  12849-2 0  9993
2 33062  48.4407 353.1247 0005951 152.6646 310.0425 14.77925352868594
